[{"OBJECT_NAME":"STARLINK-4567","OBJECT_ID":"2022-125G","EPOCH":"2026-03-09T15:15:13.159872","MEAN_MOTION":15.08837522,"ECCENTRICITY":0.0001176,"INCLINATION":53.2175,"RA_OF_ASC_NODE":219.4049,"ARG_OF_PERICENTER":75.709,"MEAN_ANOMALY":284.4032,"EPHEMERIS_TYPE":0,"CLASSIFICATION_TYPE":"U","NORAD_CAT_ID":53970,"ELEMENT_SET_NO":999,"REV_AT_EPOCH":18939,"BSTAR":-0.00011837,"MEAN_MOTION_DOT":-2.171e-5,"MEAN_MOTION_DDOT":0},{"OBJECT_NAME":"SL-24 PLAT","OBJECT_ID":"2014-033AR","EPOCH":"2026-03-09T22:47:27.152448","MEAN_MOTION":15.0919716,"ECCENTRICITY":0.00052059,"INCLINATION":98.0981,"RA_OF_ASC_NODE":61.9435,"ARG_OF_PERICENTER":212.2329,"MEAN_ANOMALY":147.8581,"EPHEMERIS_TYPE":0,"CLASSIFICATION_TYPE":"U","NORAD_CAT_ID":40049,"ELEMENT_SET_NO":999,"REV_AT_EPOCH":63724,"BSTAR":0.00046923352,"MEAN_MOTION_DOT":7.393e-5,"MEAN_MOTION_DDOT":0}]
